     2.100          NAVIGATION                              RINEX VERSION / TYPE
fic2rin                                 05/29/2011 00:06:26 PGM / RUN BY / DATE
                                                            END OF HEADER
21 11  5 29  0  0  0.0 -.147427897900D-03 -.261479726760D-11  .000000000000D+00
     .420000000000D+02  .531250000000D+01  .488163191099D-08 -.163090081933D+01
     .104308128357D-06  .178883449407D-01  .980682671070D-05  .515375759125D+04
     .000000000000D+00  .288709998131D-06 -.982032690929D+00 -.234693288803D-06
     .931594319888D+00  .170812500000D+03 -.236196849326D+01 -.793854495798D-08
    -.363943731146D-09  .100000000000D+01  .163800000000D+04  .000000000000D+00
     .240000000000D+01  .000000000000D+00 -.116415321827D-07  .420000000000D+02
     .597606000000D+06  .400000000000D+01
22 11  5 29  0  0  0.0  .148138497025D-03 -.454747350886D-12  .000000000000D+00
     .530000000000D+02  .102593750000D+03  .494663461862D-08  .265033561933D+01
     .529736280441D-05  .567642820533D-02  .730343163013D-05  .515370893478D+04
     .000000000000D+00  .465661287308D-07  .758501606979D-01 -.502914190292D-07
     .931165181647D+00  .223093750000D+03 -.198426294527D+01 -.821712799065D-08
     .226795161215D-09  .100000000000D+01  .163800000000D+04  .000000000000D+00
     .240000000000D+01  .000000000000D+00 -.167638063431D-07  .530000000000D+02
     .597606000000D+06  .400000000000D+01
23 11  5 29  0  0  0.0  .303179025650D-03 -.272848410532D-11  .000000000000D+00
     .220000000000D+02 -.718750000000D+01  .457376194412D-08  .964686509922D+00
    -.365078449249D-06  .724570371676D-02  .219233334064D-05  .515377201653D+04
     .000000000000D+00  .502914190292D-07  .111439959755D+01  .122934579849D-06
     .964246838671D+00  .338250000000D+03 -.313657937377D+01 -.835070498324D-08
    -.396445084958D-10  .100000000000D+01  .163800000000D+04  .000000000000D+00
     .240000000000D+01  .000000000000D+00 -.200234353542D-07  .220000000000D+02
     .597606000000D+06  .400000000000D+01
24 11  5 29  0  0  0.0  .393884722143D-03  .318323145621D-11  .000000000000D+00
     .820000000000D+02  .693750000000D+01  .464483633322D-08  .206681990803D+00
     .167638063431D-06  .618818646763D-02  .969134271145D-05  .515371337318D+04
     .000000000000D+00  .108033418655D-06 -.937264572809D+00 -.745058059692D-08
     .948221492751D+00  .186500000000D+03 -.278927101496D+00 -.810569477758D-08
    -.474662628747D-09  .100000000000D+01  .163800000000D+04  .000000000000D+00
     .240000000000D+01  .000000000000D+00 -.139698386192D-08  .820000000000D+02
     .597606000000D+06  .400000000000D+01
25 11  5 29  0  0  0.0  .146823003888D-05  .136424205266D-11  .000000000000D+00
     .660000000000D+02 -.340625000000D+01  .454483216765D-08 -.245578203864D+01
    -.147148966789D-06  .835902523249D-03  .912509858608D-05  .515364877892D+04
     .000000000000D+00  .875443220139D-07 -.309893113311D+01 -.372529029846D-07
     .964337110957D+00  .205437500000D+03  .851700137209D+00 -.793390190743D-08
     .470376735936D-09  .100000000000D+01  .163800000000D+04  .000000000000D+00
     .240000000000D+01  .000000000000D+00  .512227416039D-08  .660000000000D+02
     .597606000000D+06  .400000000000D+01
26 11  5 29  0  0  0.0 -.439723953605D-04 -.112549969344D-10  .000000000000D+00
     .400000000000D+02 -.226875000000D+02  .421481842125D-08  .628305243618D+00
    -.127777457237D-05  .204857334029D-01  .327266752720D-05  .515365087318D+04
     .000000000000D+00 -.270083546638D-06  .117940374066D+01  .633299350739D-07
     .987133129943D+00  .332968750000D+03  .114932967790D+01 -.845642367256D-08
    -.206794328100D-09  .100000000000D+01  .163800000000D+04  .000000000000D+00
     .240000000000D+01  .000000000000D+00 -.605359673500D-08  .400000000000D+02
     .597606000000D+06  .400000000000D+01
27 11  5 29  0  0  0.0  .269619282335D-03  .375166564481D-11  .000000000000D+00
     .690000000000D+02 -.103906250000D+03  .395230748661D-08  .161055723767D+01
    -.563450157642D-05  .215612086467D-01  .832416117191D-05  .515367328072D+04
     .000000000000D+00  .439584255219D-06  .210515845877D+01 -.303611159325D-06
     .980965046000D+00  .228531250000D+03 -.124872246660D+01 -.763674667258D-08
    -.110004582132D-09  .100000000000D+01  .163800000000D+04  .000000000000D+00
     .240000000000D+01  .000000000000D+00 -.419095158577D-08  .690000000000D+02
     .597606000000D+06  .400000000000D+01
28 11  5 29  0  0  0.0  .409544445574D-04  .261479726760D-11  .000000000000D+00
     .430000000000D+02  .590625000000D+01  .423803367397D-08  .271099100146D+01
     .219792127609D-06  .169642560650D-01  .848062336445D-05  .515369682693D+04
     .000000000000D+00  .119209289551D-06 -.304404950682D+01 -.186264514923D-06
     .974841327974D+00  .219656250000D+03 -.188760309820D+01 -.751674167389D-08
     .385730352932D-09  .100000000000D+01  .163800000000D+04  .000000000000D+00
     .240000000000D+01  .000000000000D+00 -.102445483208D-07  .430000000000D+02
     .597606000000D+06  .400000000000D+01
29 11  5 29  0  0  0.0  .211036764085D-03  .284217094304D-11  .000000000000D+00
     .700000000000D+02 -.130625000000D+02  .488520348833D-08 -.140344808649D+01
    -.763684511185D-06  .262573442888D-02  .555627048016D-05  .515378214836D+04
     .000000000000D+00 -.782310962677D-07 -.200057560684D+01  .000000000000D+00
     .961317709484D+00  .269281250000D+03 -.119830561070D+01 -.820212736581D-08
    -.200365488884D-09  .100000000000D+01  .163800000000D+04  .000000000000D+00
     .240000000000D+01  .000000000000D+00 -.931322574615D-08  .700000000000D+02
     .597606000000D+06  .400000000000D+01
30 11  5 29  0  0  0.0  .457139685750D-05  .432009983342D-11  .000000000000D+00
     .110000000000D+02 -.490625000000D+01  .456126142342D-08  .185338280083D+01
    -.437721610069D-06  .127534733620D-01  .916980206966D-05  .515367813110D+04
     .000000000000D+00  .104308128357D-06 -.312817440177D+01 -.303611159325D-06
     .960956639358D+00  .202125000000D+03  .152629547064D+01 -.780175354578D-08
     .431089385175D-09  .100000000000D+01  .163800000000D+04  .000000000000D+00
     .965000000000D+01  .630000000000D+02 -.838190317154D-08  .110000000000D+02
     .597606000000D+06  .400000000000D+01
31 11  5 29  0  0  0.0  .872053205967D-04  .568434188608D-11  .000000000000D+00
     .970000000000D+02 -.901875000000D+02  .407838416679D-08 -.774396258724D+00
    -.495649874210D-05  .763775687665D-02  .842474400997D-05  .515366988754D+04
     .000000000000D+00 -.819563865662D-07  .216079801268D+01 -.670552253723D-07
     .979664286538D+00  .229031250000D+03 -.953450583707D+00 -.792247285994D-08
     .300012496725D-10  .100000000000D+01  .163800000000D+04  .000000000000D+00
     .240000000000D+01  .000000000000D+00 -.130385160446D-07  .970000000000D+02
     .597606000000D+06  .400000000000D+01
32 11  5 29  0  0  0.0 -.262817367911D-03 -.716227077646D-11  .000000000000D+00
     .150000000000D+02  .882500000000D+02  .454161774804D-08 -.702631902410D-01
     .459514558315D-05  .121624368476D-01  .667572021484D-05  .515367442894D+04
     .000000000000D+00 -.186264514923D-08  .142623984107D+00 -.240281224251D-06
     .955369186139D+00  .251125000000D+03 -.784798789768D+00 -.831641784076D-08
     .164649715464D-09  .100000000000D+01  .163800000000D+04  .000000000000D+00
     .240000000000D+01  .000000000000D+00 -.279396772385D-08  .150000000000D+02
     .597606000000D+06  .400000000000D+01
11 11  5 28 23 59 44.0 -.154789071530D-03 -.329691829393D-11  .000000000000D+00
     .400000000000D+01 -.170312500000D+02  .631490589832D-08 -.616237620679D+00
    -.862404704094D-06  .117413502885D-01  .789202749729D-05  .515366642952D+04
     .604784000000D+06 -.316649675369D-07 -.112474501481D+01  .242143869400D-06
     .887642782159D+00  .186437500000D+03  .931251985355D+00 -.902823320501D-08
    -.534665128092D-09  .100000000000D+01  .163700000000D+04  .000000000000D+00
     .240000000000D+01  .000000000000D+00 -.116415321827D-07  .400000000000D+01
     .597696000000D+06  .400000000000D+01
27 11  5 28 23 59 44.0  .269607640803D-03  .375166564481D-11  .000000000000D+00
     .120000000000D+02 -.103906250000D+03  .395195032888D-08  .160822372095D+01
    -.563450157642D-05  .215612147003D-01  .832416117191D-05  .515367327499D+04
     .604784000000D+06  .439584255219D-06  .222557383377D+01 -.303611159325D-06
     .980965041611D+00  .228531250000D+03 -.124872263776D+01 -.763674667258D-08
    -.110004582132D-09  .100000000000D+01  .163700000000D+04  .000000000000D+00
     .240000000000D+01  .000000000000D+00 -.419095158577D-08  .120000000000D+02
     .603666000000D+06  .400000000000D+01
